ARIANE 40 R/B           
1 20443U 90005H   25362.16693884  .00000373  00000+0  13240-3 0  9995
2 20443  98.3223  59.9075 0011096  63.9865 296.2465 14.39810133882512
DELTA 2 R/B(1)          
1 20453U 90008B   25362.12155574  .00060321  00000+0  92520-3 0  9991
2 20453  35.6064 281.1107 0108868 317.7503  41.4882 15.46558121915018
COSMOS 2058             
1 20465U 90010A   25362.32506656  .00006307  00000+0  37954-3 0  9994
2 20465  82.4706 117.7014 0009750 215.2223 144.8363 15.10628938931460
SL-14 R/B               
1 20466U 90010B   25362.19170391  .00000654  00000+0  76403-4 0  9995
2 20466  82.5025 334.5340 0019973 170.9075 189.2506 14.83486642917882
SL-14 R/B               
1 20511U 90018B   25362.27573550  .00000673  00000+0  81686-4 0  9997
2 20511  82.5220 289.8447 0015665 332.1414  27.8960 14.82063661912004
HST                     
1 20580U 90037B   25361.81274168  .00007679  00000+0  26317-3 0  9998
2 20580  28.4655 169.8779 0002567  48.3389 311.7425 15.28239180762309
SL-16 R/B               
1 20625U 90046B   25362.22756434  .00000009  00000+0  29077-4 0  9992
2 20625  70.9992  87.9966 0012409  46.8350 313.3807 14.14997520838286
COSMOS 2084             
1 20663U 90055A   25362.04864816  .00003265  00000+0  24040-3 0  9999
2 20663  62.7886 219.8271 0029271 176.7470 183.3826 15.05109929925535
SL-6 R/B(2)             
1 20666U 90055D   25361.73585602  .00003129  00000+0  24449-3 0  9992
2 20666  62.7829 138.4586 0014517 318.9634  41.0371 15.03147882927376
SL-8 R/B                
1 20775U 90078B   25362.28347331  .00017819  00000+0  54913-3 0  9994
2 20775  82.9055 315.3917 0369798 253.5488 102.4796 14.86484273798682
SL-8 R/B                
1 21088U 91006B   25362.16056003  .00000083  00000+0  68392-4 0  9996
2 21088  82.9411 223.2424 0021385 234.0224 240.3995 13.77492817754222
OKEAN-3                 
1 21397U 91039A   25362.18223143  .00003478  00000+0  24796-3 0  9998
2 21397  82.5162  46.0986 0013666 207.1420 152.9093 15.04214193854285
COSMOS 2151             
1 21422U 91042A   25362.23593364  .00003424  00000+0  27483-3 0  9999
2 21422  82.4967 152.5693 0011445 304.6178  55.3966 14.99750464852484
SL-14 R/B               
1 21423U 91042B   25362.31382674  .00000592  00000+0  71940-4 0  9990
2 21423  82.4936 287.1200 0018477 113.4255 246.8904 14.81753819842503
ERS-1                   
1 21574U 91050A   25362.03011842  .00000448  00000+0  15810-3 0  9994
2 21574  98.7902  13.4671 0032836  56.0708 304.3593 14.39377158805420
ARIANE 40 R/B           
1 21610U 91050F   25362.11265890  .00000426  00000+0  14012-3 0  9997
2 21610  98.2145  51.9869 0002010 300.7319  59.3674 14.42826072808674
INTERCOSMOS 25          
1 21819U 91086A   25362.23940806  .00002120  00000+0  42211-3 0  9992
2 21819  82.6083 353.2002 1486243 270.9683  72.2047 12.11790286488030
SL-8 R/B                
1 21876U 92008B   25362.32316617  .00000150  00000+0  13847-3 0  9991
2 21876  82.9276 320.8552 0034193 336.3466 132.1380 13.75962530699605
SL-8 R/B                
1 21938U 92020B   25362.12784375  .00000180  00000+0  17073-3 0  9990
2 21938  82.9289 206.8903 0029832 135.8081 341.6904 13.75531384691295
USA 81                  
1 21949U 92023A   25361.98398468  .00000277  00000+0  95252-4 0  9995
2 21949  85.0082 172.7841 0001092  94.7317 265.4000 14.32332856 84526
COSMOS 2219             
1 22219U 92076A   25362.21652097  .00000424  00000+0  24731-3 0  9999
2 22219  71.0586 167.4792 0019576 305.5634  54.3663 14.14070681708278
SL-16 R/B               
1 22220U 92076B   25362.33047043 -.00000074  00000+0 -12822-4 0  9995
2 22220  71.0011 338.6894 0014028 213.2912 261.7438 14.16845931711727
COSMOS 2221             
1 22236U 92080A   25362.20394623  .00002673  00000+0  23655-3 0  9992
2 22236  82.5045 347.5225 0016306  74.7359 285.5664 14.95825175770108
SL-16 R/B               
1 22285U 92093B   25361.86765522 -.00000123  00000+0 -38452-4 0  9993
2 22285  71.0210 155.0395 0002667  25.3897 334.7357 14.15435235702997
COSMOS 2228             
1 22286U 92094A   25362.26697362  .00003439  00000+0  29727-3 0  9991
2 22286  82.5188 305.6776 0017854 176.6913 183.4431 14.96805110765373
SL-16 R/B               
1 22566U 93016B   25362.25431662  .00000184  00000+0  11880-3 0  9990
2 22566  71.0086   5.2177 0008048  66.5093 293.6875 14.15294509692069
COSMOS 2242             
1 22626U 93024A   25362.21894718  .00003104  00000+0  27271-3 0  9993
2 22626  82.5195 335.0486 0016202 179.3934 180.7311 14.96173934769703
SL-16 R/B               
1 22803U 93059B   25361.90725030  .00000257  00000+0  15068-3 0  9990
2 22803  70.9889 162.5015 0018729 314.2789  45.6797 14.17217673669366
ARIANE 40 R/B           
1 22830U 93061H   25362.12124234  .00000330  00000+0  13667-3 0  9992
2 22830  98.5056  67.3700 0011627 132.8265 227.3898 14.32811963683854
COSMOS 2278             
1 23087U 94023A   25362.23688694  .00000221  00000+0  14035-3 0  9992
2 23087  71.0536 324.5871 0007693 151.5201 208.6343 14.14349752634700
SL-16 R/B               
1 23088U 94023B   25362.03306732 -.00000149  00000+0 -52262-4 0  9997
2 23088  70.9973 221.3700 0002235   1.4781 358.6348 14.14998750635959
SL-16 R/B               
1 23343U 94074B   25362.09719343  .00000652  00000+0  94184-4 0  9995
2 23343  97.7188  30.7902 0008046  93.9334 328.2631 14.79307638676661
SL-16 R/B               
1 23405U 94077B   25362.32529102 -.00000228  00000+0 -92055-4 0  9991
2 23405  70.9823 142.6260 0005041 272.1970  87.8576 14.15551277606139
ARIANE 40+ R/B          
1 23561U 95021B   25362.23615590  .00000413  00000+0  14576-3 0  9996
2 23561  98.4632  69.6369 0006641   6.0239  61.8062 14.39707737608967
SL-16 R/B               
1 23705U 95058B   25362.25809863  .00000006  00000+0  27416-4 0  9992
2 23705  71.0218 330.2229 0014499 234.5408 125.4362 14.15481408557749
SL-16 R/B               
1 24298U 96051B   25362.28195261  .00000016  00000+0  35621-4 0  9995
2 24298  70.7596 326.3849 0019452 242.2915 117.6232 14.12397997511564
ORBVIEW 2 (SEASTAR)     
1 24883U 97037A   25362.18082349  .00000422  00000+0  16306-3 0  9990
2 24883  98.8465 159.6447 0001197 270.3164  89.7883 14.35428596498218
SL-16 R/B               
1 25400U 98043G   25361.74343355  .00000097  00000+0  59487-4 0  9998
2 25400  98.8147 309.6471 0009105 218.4695 141.5836 14.26029068428730
SL-16 R/B               
1 25407U 98045B   25362.30415392  .00000221  00000+0  13592-3 0  9996
2 25407  71.0124 331.6942 0005988 150.7280 209.4180 14.16180096416995
ISS (ZARYA)             
1 25544U 98067A   25362.21118694  .00015781  00000+0  28493-3 0  9990
2 25544  51.6320  65.8529 0003260 313.9289  46.1430 15.49897702545251
CZ-4B R/B               
1 25732U 99025C   25362.12881462  .00000077  00000+0  58225-4 0  9993
2 25732  98.6748  43.0631 0036994 189.1931 231.2311 14.18247492378028
OKEAN-O                 
1 25860U 99039A   25362.13493192  .00000910  00000+0  12668-3 0  9996
2 25860  97.9582  57.7020 0001203 115.0963 245.0374 14.80188150423803
SL-16 R/B               
1 25861U 99039B   25362.11525157  .00000832  00000+0  11248-3 0  9998
2 25861  98.0106  56.2660 0015925 126.8168 233.4508 14.81609580426264
DELTA 2 R/B             
1 25876U 99041E   25362.00817093  .00001780  00000+0  32527-3 0  9994
2 25876  51.7597 227.4948 0504403 136.7622 227.4075 14.11445027352908
HELIOS 1B               
1 25977U 99064A   25362.27702304  .00002731  00000+0  30877-3 0  9991
2 25977  98.1749 257.4040 0000792  31.8648 328.2615 14.87347653674642
TERRA                   
1 25994U 99068A   25362.28231464  .00000628  00000+0  13742-3 0  9994
2 25994  97.9728  53.3947 0003327  63.2729   1.2323 14.60919971384652
SL-16 R/B               
1 26070U 00006B   25362.08905469  .00000278  00000+0  16564-3 0  9991
2 26070  71.0010 248.3848 0018624 287.9309  71.9783 14.15810438338422
TITAN 4B R/B            
1 26474U 00047B   25362.25488136  .00004554  00000+0  29179-3 0  9997
2 26474  67.9888 241.2782 0037873 125.4435 235.0259 15.08896031382133
ENVISAT                 
1 27386U 02009A   25352.94754304  .00000081  00000+0  39999-4 0  9991
2 27386  98.3609 303.5309 0001126  84.8976 298.2993 14.39001403247569
IDEFIX & ARIANE 42P R/B 
1 27422U 02021B   25362.24605681  .00000431  00000+0  18040-3 0  9995
2 27422  98.5805 296.7371 0012658  41.7152 318.4994 14.30962213233806
AQUA                    
1 27424U 02022A   25360.99159258  .00001315  00000+0  27355-3 0  9993
2 27424  98.4058 322.1038 0001849  99.7002 302.1298 14.61764548258111
CZ-4B R/B               
1 27432U 02024C   25362.13599529  .00000068  00000+0  58255-4 0  9999
2 27432  98.8977  50.8525 0049484 225.4205 193.6964 14.14531129219126
MIDORI II (ADEOS-II)    
1 27597U 02056A   25362.11726020  .00000427  00000+0  18601-3 0  9991
2 27597  98.7657 315.1558 0000963 143.5382 216.5865 14.29216934200079
H-2A R/B                
1 27601U 02056E   25361.89451497  .00000546  00000+0  20601-3 0  9999
2 27601  98.3088 320.0496 0070742  16.5079  41.8942 14.33690170203823
CZ-4B R/B               
1 28059U 03049C   25362.20702087  .00000609  00000+0  15102-3 0  9990
2 28059  98.6801 349.3561 0049388  89.8359 270.8496 14.54925130176209
CZ-2C R/B               
1 28222U 04012C   25362.10861863  .00046694  00000+0  64905-3 0  9999
2 28222  97.7396  56.0099 0016715 210.8755 149.1518 15.56698763193116
SL-16 R/B               
1 28353U 04021B   25362.31991843  .00000295  00000+0  17854-3 0  9997
2 28353  71.0004  22.2688 0004441 173.5951 186.5229 14.14581575112746
CZ-4B R/B               
1 28415U 04035C   25362.08702052  .00010889  00000+0  39971-3 0  9991
2 28415  97.3598  32.2271 0032021 220.4222 139.4638 15.27629231168975
CZ-2C R/B               
1 28480U 04046B   25362.24493974  .00000389  00000+0  15964-3 0  9993
2 28480  98.1997 276.6600 0139708   6.6681 353.6318 14.26950855 98314
